{
  "type": "FeatureCollection",
  "features": [
    {
      "type": "Feature",
      "properties": {
        "norad_id": 67089,
        "name": "STARLINK-35763",
        "group": "last-30-days",
        "lat": -11.320127129836218,
        "lon": 38.80518057506138,
        "alt_km": 331.06354152323183,
        "timestamp": "2025-12-25T03:55:54.956978+00:00",
        "meta_object_name": "STARLINK-35763",
        "meta_object_id": "2025-298Q",
        "meta_epoch": "2025-12-24T20:00:01.000224",
        "meta_mean_motion": 15.8224352,
        "meta_eccentricity": 0.0003844,
        "meta_inclination": 69.9969,
        "meta_ra_of_asc_node": 215.568,
        "meta_arg_of_pericenter": 273.5173,
        "meta_mean_anomaly": 197.329,
        "meta_ephemeris_type": 0,
        "meta_classification_type": "U",
        "meta_norad_cat_id": 67089,
        "meta_element_set_no": 999,
        "meta_rev_at_epoch": 292,
        "meta_bstar": -0.0095876,
        "meta_mean_motion_dot": -0.01715829,
        "meta_mean_motion_ddot": 0,
        "tle_line1": "1 67089U 25298Q   25358.83334491 -.01715829  00000+0 -95876-2 0  9995",
        "tle_line2": "2 67089  69.9969 215.5680 0003844 273.5173 197.3290 15.82243520  2920"
      },
      "geometry": {
        "type": "Point",
        "coordinates": [
          38.80518057506138,
          -11.320127129836218
        ]
      }
    },
    {
      "type": "Feature",
      "properties": {
        "norad_id": 67090,
        "name": "STARLINK-36060",
        "group": "last-30-days",
        "lat": -13.063640550590511,
        "lon": 39.469712621718365,
        "alt_km": 331.1112558084451,
        "timestamp": "2025-12-25T03:55:54.956988+00:00",
        "meta_object_name": "STARLINK-36060",
        "meta_object_id": "2025-298R",
        "meta_epoch": "2025-12-24T20:00:01.000224",
        "meta_mean_motion": 15.82241608,
        "meta_eccentricity": 0.000383,
        "meta_inclination": 69.9965,
        "meta_ra_of_asc_node": 215.5655,
        "meta_arg_of_pericenter": 272.2344,
        "meta_mean_anomaly": 200.4746,
        "meta_ephemeris_type": 0,
        "meta_classification_type": "U",
        "meta_norad_cat_id": 67090,
        "meta_element_set_no": 999,
        "meta_rev_at_epoch": 286,
        "meta_bstar": -0.0095768,
        "meta_mean_motion_dot": -0.01714013,
        "meta_mean_motion_ddot": 0,
        "tle_line1": "1 67090U 25298R   25358.83334491 -.01714013  00000+0 -95768-2 0  9991",
        "tle_line2": "2 67090  69.9965 215.5655 0003830 272.2344 200.4746 15.82241608  2861"
      },
      "geometry": {
        "type": "Point",
        "coordinates": [
          39.469712621718365,
          -13.063640550590511
        ]
      }
    },
    {
      "type": "Feature",
      "properties": {
        "norad_id": 67091,
        "name": "STARLINK-36097",
        "group": "last-30-days",
        "lat": -15.058756539499209,
        "lon": 40.24304113201776,
        "alt_km": 331.22028085526836,
        "timestamp": "2025-12-25T03:55:54.956998+00:00",
        "meta_object_name": "STARLINK-36097",
        "meta_object_id": "2025-298S",
        "meta_epoch": "2025-12-24T20:00:01.000224",
        "meta_mean_motion": 15.82231963,
        "meta_eccentricity": 0.000376,
        "meta_inclination": 69.9967,
        "meta_ra_of_asc_node": 215.5631,
        "meta_arg_of_pericenter": 271.2998,
        "meta_mean_anomaly": 203.5525,
        "meta_ephemeris_type": 0,
        "meta_classification_type": "U",
        "meta_norad_cat_id": 67091,
        "meta_element_set_no": 999,
        "meta_rev_at_epoch": 292,
        "meta_bstar": -0.0095826,
        "meta_mean_motion_dot": -0.01714151,
        "meta_mean_motion_ddot": 0,
        "tle_line1": "1 67091U 25298S   25358.83334491 -.01714151  00000+0 -95826-2 0  9990",
        "tle_line2": "2 67091  69.9967 215.5631 0003760 271.2998 203.5525 15.82231963  2923"
      },
      "geometry": {
        "type": "Point",
        "coordinates": [
          40.24304113201776,
          -15.058756539499209
        ]
      }
    },
    {
      "type": "Feature",
      "properties": {
        "norad_id": 67092,
        "name": "STARLINK-35792",
        "group": "last-30-days",
        "lat": -16.798256520056388,
        "lon": 40.92988775278723,
        "alt_km": 331.2871711623611,
        "timestamp": "2025-12-25T03:55:54.957009+00:00",
        "meta_object_name": "STARLINK-35792",
        "meta_object_id": "2025-298T",
        "meta_epoch": "2025-12-24T20:00:01.000224",
        "meta_mean_motion": 15.8224378,
        "meta_eccentricity": 0.0003881,
        "meta_inclination": 69.9966,
        "meta_ra_of_asc_node": 215.5608,
        "meta_arg_of_pericenter": 271.5624,
        "meta_mean_anomaly": 205.1441,
        "meta_ephemeris_type": 0,
        "meta_classification_type": "U",
        "meta_norad_cat_id": 67092,
        "meta_element_set_no": 999,
        "meta_rev_at_epoch": 286,
        "meta_bstar": -0.0096406,
        "meta_mean_motion_dot": -0.01724075,
        "meta_mean_motion_ddot": 0,
        "tle_line1": "1 67092U 25298T   25358.83334491 -.01724075  00000+0 -96406-2 0  9992",
        "tle_line2": "2 67092  69.9966 215.5608 0003881 271.5624 205.1441 15.82243780  2868"
      },
      "geometry": {
        "type": "Point",
        "coordinates": [
          40.92988775278723,
          -16.798256520056388
        ]
      }
    },
    {
      "type": "Feature",
      "properties": {
        "norad_id": 67093,
        "name": "STARLINK-35784",
        "group": "last-30-days",
        "lat": -18.64626650115277,
        "lon": 41.67449103025429,
        "alt_km": 331.45295613345934,
        "timestamp": "2025-12-25T03:55:54.957021+00:00",
        "meta_object_name": "STARLINK-35784",
        "meta_object_id": "2025-298U",
        "meta_epoch": "2025-12-24T20:00:01.000224",
        "meta_mean_motion": 15.82238412,
        "meta_eccentricity": 0.00038,
        "meta_inclination": 69.9965,
        "meta_ra_of_asc_node": 215.5582,
        "meta_arg_of_pericenter": 273.0089,
        "meta_mean_anomaly": 205.6805,
        "meta_ephemeris_type": 0,
        "meta_classification_type": "U",
        "meta_norad_cat_id": 67093,
        "meta_element_set_no": 999,
        "meta_rev_at_epoch": 292,
        "meta_bstar": -0.0095943,
        "meta_mean_motion_dot": -0.01716452,
        "meta_mean_motion_ddot": 0,
        "tle_line1": "1 67093U 25298U   25358.83334491 -.01716452  00000+0 -95943-2 0  9998",
        "tle_line2": "2 67093  69.9965 215.5582 0003800 273.0089 205.6805 15.82238412  2924"
      },
      "geometry": {
        "type": "Point",
        "coordinates": [
          41.67449103025429,
          -18.64626650115277
        ]
      }
    },
    {
      "type": "Feature",
      "properties": {
        "norad_id": 67094,
        "name": "STARLINK-36202",
        "group": "last-30-days",
        "lat": -20.661531643508997,
        "lon": 42.506999345670096,
        "alt_km": 331.7165135123114,
        "timestamp": "2025-12-25T03:55:54.957033+00:00",
        "meta_object_name": "STARLINK-36202",
        "meta_object_id": "2025-298V",
        "meta_epoch": "2025-12-24T20:00:01.000224",
        "meta_mean_motion": 15.82222578,
        "meta_eccentricity": 0.0003742,
        "meta_inclination": 69.9964,
        "meta_ra_of_asc_node": 215.5556,
        "meta_arg_of_pericenter": 275.9155,
        "meta_mean_anomaly": 204.9552,
        "meta_ephemeris_type": 0,
        "meta_classification_type": "U",
        "meta_norad_cat_id": 67094,
        "meta_element_set_no": 999,
        "meta_rev_at_epoch": 292,
        "meta_bstar": -0.0095809,
        "meta_mean_motion_dot": -0.01713218,
        "meta_mean_motion_ddot": 0,
        "tle_line1": "1 67094U 25298V   25358.83334491 -.01713218  00000+0 -95809-2 0  9997",
        "tle_line2": "2 67094  69.9964 215.5556 0003742 275.9155 204.9552 15.82222578  2922"
      },
      "geometry": {
        "type": "Point",
        "coordinates": [
          42.506999345670096,
          -20.661531643508997
        ]
      }
    },
    {
      "type": "Feature",
      "properties": {
        "norad_id": 67095,
        "name": "STARLINK-36227",
        "group": "last-30-days",
        "lat": -22.56600890363211,
        "lon": 43.31583794577413,
        "alt_km": 331.84326143027647,
        "timestamp": "2025-12-25T03:55:54.957045+00:00",
        "meta_object_name": "STARLINK-36227",
        "meta_object_id": "2025-298W",
        "meta_epoch": "2025-12-24T20:00:01.000224",
        "meta_mean_motion": 15.82224806,
        "meta_eccentricity": 0.0003522,
        "meta_inclination": 69.9962,
        "meta_ra_of_asc_node": 215.553,
        "meta_arg_of_pericenter": 275.7099,
        "meta_mean_anomaly": 207.2087,
        "meta_ephemeris_type": 0,
        "meta_classification_type": "U",
        "meta_norad_cat_id": 67095,
        "meta_element_set_no": 999,
        "meta_rev_at_epoch": 286,
        "meta_bstar": -0.009628,
        "meta_mean_motion_dot": -0.01720366,
        "meta_mean_motion_ddot": 0,
        "tle_line1": "1 67095U 25298W   25358.83334491 -.01720366  00000+0 -96280-2 0  9994",
        "tle_line2": "2 67095  69.9962 215.5530 0003522 275.7099 207.2087 15.82224806  2862"
      },
      "geometry": {
        "type": "Point",
        "coordinates": [
          43.31583794577413,
          -22.56600890363211
        ]
      }
    }
  ]
}